[{"OBJECT_NAME":"GAOFEN-9 03","OBJECT_ID":"2020-039A","EPOCH":"2026-03-09T21:55:15.121344","MEAN_MOTION":15.30529116,"ECCENTRICITY":0.0013094,"INCLINATION":97.5219,"RA_OF_ASC_NODE":201.2158,"ARG_OF_PERICENTER":77.4533,"MEAN_ANOMALY":282.8172,"EPHEMERIS_TYPE":0,"CLASSIFICATION_TYPE":"U","NORAD_CAT_ID":45794,"ELEMENT_SET_NO":999,"REV_AT_EPOCH":31856,"BSTAR":0.00039258132,"MEAN_MOTION_DOT":0.00011544,"MEAN_MOTION_DDOT":0},{"OBJECT_NAME":"STARLINK-32875","OBJECT_ID":"2025-029D","EPOCH":"2026-03-09T18:50:21.555744","MEAN_MOTION":15.30158605,"ECCENTRICITY":0.00012484,"INCLINATION":53.1593,"RA_OF_ASC_NODE":229.7829,"ARG_OF_PERICENTER":75.4058,"MEAN_ANOMALY":284.7081,"EPHEMERIS_TYPE":0,"CLASSIFICATION_TYPE":"U","NORAD_CAT_ID":62951,"ELEMENT_SET_NO":999,"REV_AT_EPOCH":6137,"BSTAR":0.0013404593,"MEAN_MOTION_DOT":0.00039502,"MEAN_MOTION_DDOT":0}]
